{
  "type": "FeatureCollection",
  "features": [
    {
      "type": "Feature",
      "properties": {
        "norad_id": 48859,
        "name": "GPS BIII-5  (PRN 11)",
        "group": "gps-ops",
        "lat": -50.27356284415523,
        "lon": -76.72468928725046,
        "alt_km": 20152.781980939653,
        "timestamp": "2025-12-13T22:39:29.968754+00:00",
        "meta_object_name": "GPS BIII-5  (PRN 11)",
        "meta_object_id": "2021-054A",
        "meta_epoch": "2025-12-08T04:14:32.423424",
        "meta_mean_motion": 2.00553627,
        "meta_eccentricity": 0.0024678,
        "meta_inclination": 55.2581,
        "meta_ra_of_asc_node": 340.1367,
        "meta_arg_of_pericenter": 233.3994,
        "meta_mean_anomaly": 212.8593,
        "meta_ephemeris_type": 0,
        "meta_classification_type": "U",
        "meta_norad_cat_id": 48859,
        "meta_element_set_no": 999,
        "meta_rev_at_epoch": 3292,
        "meta_bstar": 0,
        "meta_mean_motion_dot": -8.6e-07,
        "meta_mean_motion_ddot": 0,
        "tle_line1": "1 48859U 21054A   25342.17676416 -.00000086  00000+0  00000+0 0  9993",
        "tle_line2": "2 48859  55.2581 340.1367 0024678 233.3994 212.8593  2.00553627 32922"
      },
      "geometry": {
        "type": "Point",
        "coordinates": [
          -76.72468928725046,
          -50.27356284415523
        ]
      }
    },
    {
      "type": "Feature",
      "properties": {
        "norad_id": 55268,
        "name": "GPS BIII-6  (PRN 28)",
        "group": "gps-ops",
        "lat": -22.0613589480117,
        "lon": 139.35499666986573,
        "alt_km": 20176.94863448649,
        "timestamp": "2025-12-13T22:39:29.968765+00:00",
        "meta_object_name": "GPS BIII-6  (PRN 28)",
        "meta_object_id": "2023-009A",
        "meta_epoch": "2025-12-12T05:45:10.561248",
        "meta_mean_motion": 2.00555751,
        "meta_eccentricity": 0.00036962,
        "meta_inclination": 55.1051,
        "meta_ra_of_asc_node": 155.8647,
        "meta_arg_of_pericenter": 357.1101,
        "meta_mean_anomaly": 185.0409,
        "meta_ephemeris_type": 0,
        "meta_classification_type": "U",
        "meta_norad_cat_id": 55268,
        "meta_element_set_no": 999,
        "meta_rev_at_epoch": 2149,
        "meta_bstar": 0,
        "meta_mean_motion_dot": 9.5e-07,
        "meta_mean_motion_ddot": 0,
        "tle_line1": "1 55268U 23009A   25346.23970557  .00000095  00000+0  00000+0 0  9990",
        "tle_line2": "2 55268  55.1051 155.8647 0003696 357.1101 185.0409  2.00555751 21496"
      },
      "geometry": {
        "type": "Point",
        "coordinates": [
          139.35499666986573,
          -22.0613589480117
        ]
      }
    },
    {
      "type": "Feature",
      "properties": {
        "norad_id": 62339,
        "name": "GPS BIII-7  (PRN 01)",
        "group": "gps-ops",
        "lat": 39.04706692064145,
        "lon": 16.431721928988452,
        "alt_km": 20163.979093319333,
        "timestamp": "2025-12-13T22:39:29.968777+00:00",
        "meta_object_name": "GPS BIII-7  (PRN 01)",
        "meta_object_id": "2024-242A",
        "meta_epoch": "2025-12-10T14:03:42.090048",
        "meta_mean_motion": 2.00567746,
        "meta_eccentricity": 0.0012131,
        "meta_inclination": 54.9242,
        "meta_ra_of_asc_node": 341.8267,
        "meta_arg_of_pericenter": 344.331,
        "meta_mean_anomaly": 161.0631,
        "meta_ephemeris_type": 0,
        "meta_classification_type": "U",
        "meta_norad_cat_id": 62339,
        "meta_element_set_no": 999,
        "meta_rev_at_epoch": 747,
        "meta_bstar": 0,
        "meta_mean_motion_dot": -9e-07,
        "meta_mean_motion_ddot": 0,
        "tle_line1": "1 62339U 24242A   25344.58590382 -.00000090  00000+0  00000+0 0  9993",
        "tle_line2": "2 62339  54.9242 341.8267 0012131 344.3310 161.0631  2.00567746  7471"
      },
      "geometry": {
        "type": "Point",
        "coordinates": [
          16.431721928988452,
          39.04706692064145
        ]
      }
    },
    {
      "type": "Feature",
      "properties": {
        "norad_id": 64202,
        "name": "GPS BIII-8  (PRN 21)",
        "group": "gps-ops",
        "lat": -45.033628715044834,
        "lon": -97.11797348579822,
        "alt_km": 20182.37684824023,
        "timestamp": "2025-12-13T22:39:29.968789+00:00",
        "meta_object_name": "GPS BIII-8  (PRN 21)",
        "meta_object_id": "2025-116A",
        "meta_epoch": "2025-12-13T02:48:10.465056",
        "meta_mean_motion": 2.00558313,
        "meta_eccentricity": 0.00055988,
        "meta_inclination": 55.106,
        "meta_ra_of_asc_node": 38.6253,
        "meta_arg_of_pericenter": 307.9903,
        "meta_mean_anomaly": 54.3389,
        "meta_ephemeris_type": 0,
        "meta_classification_type": "U",
        "meta_norad_cat_id": 64202,
        "meta_element_set_no": 999,
        "meta_rev_at_epoch": 414,
        "meta_bstar": 0,
        "meta_mean_motion_dot": -9.8e-07,
        "meta_mean_motion_ddot": 0,
        "tle_line1": "1 64202U 25116A   25347.11678779 -.00000098  00000+0  00000+0 0  9992",
        "tle_line2": "2 64202  55.1060  38.6253 0005598 307.9903  54.3389  2.00558313  4146"
      },
      "geometry": {
        "type": "Point",
        "coordinates": [
          -97.11797348579822,
          -45.033628715044834
        ]
      }
    }
  ]
}